{"type": "FeatureCollection", "features": [ {"type": "Feature", "properties": {"norad_id": 67081, "name": "STARLINK-35864", "group": "last-30-days", "lat": -4.739778978747844, "lon": 36.00756663770563, "alt_km": 331.8790362689151, "timestamp": "2025-12-25T07:00:32.767295+00:00", "meta": {"OBJECT_NAME": "STARLINK-35864", "OBJECT_ID": "2025-298G", "EPOCH": "2025-12-24T22:00:03.000096", "MEAN_MOTION": 15.81942296, "ECCENTRICITY": 0.00036348, "INCLINATION": 69.9971, "RA_OF_ASC_NODE": 215.3493, "ARG_OF_PERICENTER": 271.3483, "MEAN_ANOMALY": 297.6402, "EPHEMERIS_TYPE": 0, "CLASSIFICATION_TYPE": "U", "NORAD_CAT_ID": 67081, "ELEMENT_SET_NO": 999, "REV_AT_EPOCH": 293, "BSTAR": -0.0094505713, "MEAN_MOTION_DOT": -0.01673718, "MEAN_MOTION_DDOT": 0}, "tle": {"line1": "1 67081U 25298G   25358.91670139 -.01673718  00000+0 -94506-2 0  9997", "line2": "2 67081  69.9971 215.3493 0003634 271.3483 297.6402 15.81942296  2937"}}, "geometry": {"type": "Point", "coordinates": [36.00756663770563, -4.739778978747844]}}, {"type": "Feature", "properties": {"norad_id": 67082, "name": "STARLINK-36035", "group": "last-30-days", "lat": -6.677059629357437, "lon": 36.718511375203384, "alt_km": 332.214218327309, "timestamp": "2025-12-25T07:00:32.767306+00:00", "meta": {"OBJECT_NAME": "STARLINK-36035", "OBJECT_ID": "2025-298H", "EPOCH": "2025-12-24T22:00:03.000096", "MEAN_MOTION": 15.81937294, "ECCENTRICITY": 0.00036017, "INCLINATION": 69.9972, "RA_OF_ASC_NODE": 215.3469, "ARG_OF_PERICENTER": 275.0279, "MEAN_ANOMALY": 296.033, "EPHEMERIS_TYPE": 0, "CLASSIFICATION_TYPE": "U", "NORAD_CAT_ID": 67082, "ELEMENT_SET_NO": 999, "REV_AT_EPOCH": 293, "BSTAR": -0.009480623, "MEAN_MOTION_DOT": -0.01677947, "MEAN_MOTION_DDOT": 0}, "tle": {"line1": "1 67082U 25298H   25358.91670139 -.01677947  00000+0 -94806-2 0  9999", "line2": "2 67082  69.9972 215.3469 0003601 275.0279 296.0330 15.81937294  2935"}}, "geometry": {"type": "Point", "coordinates": [36.718511375203384, -6.677059629357437]}}, {"type": "Feature", "properties": {"norad_id": 67083, "name": "STARLINK-36170", "group": "last-30-days", "lat": -8.64818128386184, "lon": 37.44777737228216, "alt_km": 332.13989742863396, "timestamp": "2025-12-25T07:00:32.767318+00:00", "meta": {"OBJECT_NAME": "STARLINK-36170", "OBJECT_ID": "2025-298J", "EPOCH": "2025-12-24T22:00:03.000096", "MEAN_MOTION": 15.81934612, "ECCENTRICITY": 0.00036923, "INCLINATION": 69.9969, "RA_OF_ASC_NODE": 215.3441, "ARG_OF_PERICENTER": 270.0586, "MEAN_ANOMALY": 303.1073, "EPHEMERIS_TYPE": 0, "CLASSIFICATION_TYPE": "U", "NORAD_CAT_ID": 67083, "ELEMENT_SET_NO": 999, "REV_AT_EPOCH": 293, "BSTAR": -0.0094844651, "MEAN_MOTION_DOT": -0.01678457, "MEAN_MOTION_DDOT": 0}, "tle": {"line1": "1 67083U 25298J   25358.91670139 -.01678457  00000+0 -94845-2 0  9990", "line2": "2 67083  69.9969 215.3441 0003692 270.0586 303.1073 15.81934612  2933"}}, "geometry": {"type": "Point", "coordinates": [37.44777737228216, -8.64818128386184]}}, {"type": "Feature", "properties": {"norad_id": 67084, "name": "STARLINK-36166", "group": "last-30-days", "lat": -10.5243102238264, "lon": 38.149648255809616, "alt_km": 332.4992409481747, "timestamp": "2025-12-25T07:00:32.767331+00:00", "meta": {"OBJECT_NAME": "STARLINK-36166", "OBJECT_ID": "2025-298K", "EPOCH": "2025-12-24T22:00:03.000096", "MEAN_MOTION": 15.81926199, "ECCENTRICITY": 0.00036266, "INCLINATION": 69.997, "RA_OF_ASC_NODE": 215.3416, "ARG_OF_PERICENTER": 274.7977, "MEAN_ANOMALY": 300.3788, "EPHEMERIS_TYPE": 0, "CLASSIFICATION_TYPE": "U", "NORAD_CAT_ID": 67084, "ELEMENT_SET_NO": 999, "REV_AT_EPOCH": 287, "BSTAR": -0.0094764091, "MEAN_MOTION_DOT": -0.01676573, "MEAN_MOTION_DDOT": 0}, "tle": {"line1": "1 67084U 25298K   25358.91670139 -.01676573  00000+0 -94764-2 0  9998", "line2": "2 67084  69.9970 215.3416 0003626 274.7977 300.3788 15.81926199  2876"}}, "geometry": {"type": "Point", "coordinates": [38.149648255809616, -10.5243102238264]}}, {"type": "Feature", "properties": {"norad_id": 67085, "name": "STARLINK-35794", "group": "last-30-days", "lat": -12.371869638046359, "lon": 38.85007637722686, "alt_km": 332.3602477640534, "timestamp": "2025-12-25T07:00:32.767354+00:00", "meta": {"OBJECT_NAME": "STARLINK-35794", "OBJECT_ID": "2025-298L", "EPOCH": "2025-12-24T22:00:03.000096", "MEAN_MOTION": 15.81928681, "ECCENTRICITY": 0.00036888, "INCLINATION": 69.9971, "RA_OF_ASC_NODE": 215.3394, "ARG_OF_PERICENTER": 269.1579, "MEAN_ANOMALY": 307.988, "EPHEMERIS_TYPE": 0, "CLASSIFICATION_TYPE": "U", "NORAD_CAT_ID": 67085, "ELEMENT_SET_NO": 999, "REV_AT_EPOCH": 293, "BSTAR": -0.0094839139, "MEAN_MOTION_DOT": -0.01677964, "MEAN_MOTION_DDOT": 0}, "tle": {"line1": "1 67085U 25298L   25358.91670139 -.01677964  00000+0 -94839-2 0  9997", "line2": "2 67085  69.9971 215.3394 0003688 269.1579 307.9880 15.81928681  2938"}}, "geometry": {"type": "Point", "coordinates": [38.85007637722686, -12.371869638046359]}}, {"type": "Feature", "properties": {"norad_id": 67086, "name": "STARLINK-35841", "group": "last-30-days", "lat": -14.416189755441566, "lon": 39.63758355280263, "alt_km": 332.66245290606093, "timestamp": "2025-12-25T07:00:32.767364+00:00", "meta": {"OBJECT_NAME": "STARLINK-35841", "OBJECT_ID": "2025-298M", "EPOCH": "2025-12-24T22:00:03.000096", "MEAN_MOTION": 15.81926988, "ECCENTRICITY": 0.00036996, "INCLINATION": 69.9969, "RA_OF_ASC_NODE": 215.3368, "ARG_OF_PERICENTER": 272.6623, "MEAN_ANOMALY": 306.6774, "EPHEMERIS_TYPE": 0, "CLASSIFICATION_TYPE": "U", "NORAD_CAT_ID": 67086, "ELEMENT_SET_NO": 999, "REV_AT_EPOCH": 293, "BSTAR": -0.009549574, "MEAN_MOTION_DOT": -0.0168791, "MEAN_MOTION_DDOT": 0}, "tle": {"line1": "1 67086U 25298M   25358.91670139 -.01687910  00000+0 -95496-2 0  9990", "line2": "2 67086  69.9969 215.3368 0003699 272.6623 306.6774 15.81926988  2934"}}, "geometry": {"type": "Point", "coordinates": [39.63758355280263, -14.416189755441566]}}, {"type": "Feature", "properties": {"norad_id": 67087, "name": "STARLINK-35842", "group": "last-30-days", "lat": -12.599413227718292, "lon": 38.93679305800679, "alt_km": 337.3270298114576, "timestamp": "2025-12-25T07:00:32.767379+00:00", "meta": {"OBJECT_NAME": "STARLINK-35842", "OBJECT_ID": "2025-298N", "EPOCH": "2025-12-24T22:00:03.000096", "MEAN_MOTION": 15.80761111, "ECCENTRICITY": 0.00035033, "INCLINATION": 69.9969, "RA_OF_ASC_NODE": 215.3365, "ARG_OF_PERICENTER": 267.9967, "MEAN_ANOMALY": 311.3648, "EPHEMERIS_TYPE": 0, "CLASSIFICATION_TYPE": "U", "NORAD_CAT_ID": 67087, "ELEMENT_SET_NO": 999, "REV_AT_EPOCH": 293, "BSTAR": -0.014307756, "MEAN_MOTION_DOT": -0.0238633, "MEAN_MOTION_DDOT": 0}, "tle": {"line1": "1 67087U 25298N   25358.91670139 -.02386330  00000+0 -14308-1 0  9996", "line2": "2 67087  69.9969 215.3365 0003503 267.9967 311.3648 15.80761111  2931"}}, "geometry": {"type": "Point", "coordinates": [38.93679305800679, -12.599413227718292]}}, {"type": "Feature", "properties": {"norad_id": 67088, "name": "STARLINK-35882", "group": "last-30-days", "lat": -18.09758540763172, "lon": 41.09694252804817, "alt_km": 332.8892576475473, "timestamp": "2025-12-25T07:00:32.767390+00:00", "meta": {"OBJECT_NAME": "STARLINK-35882", "OBJECT_ID": "2025-298P", "EPOCH": "2025-12-24T22:00:03.000096", "MEAN_MOTION": 15.81914851, "ECCENTRICITY": 0.00036619, "INCLINATION": 69.9972, "RA_OF_ASC_NODE": 215.3321, "ARG_OF_PERICENTER": 272.8946, "MEAN_ANOMALY": 310.3983, "EPHEMERIS_TYPE": 0, "CLASSIFICATION_TYPE": "U", "NORAD_CAT_ID": 67088, "ELEMENT_SET_NO": 999, "REV_AT_EPOCH": 293, "BSTAR": -0.0095111348, "MEAN_MOTION_DOT": -0.01681155, "MEAN_MOTION_DDOT": 0}, "tle": {"line1": "1 67088U 25298P   25358.91670139 -.01681155  00000+0 -95111-2 0  9991", "line2": "2 67088  69.9972 215.3321 0003661 272.8946 310.3983 15.81914851  2938"}}, "geometry": {"type": "Point", "coordinates": [41.09694252804817, -18.09758540763172]}}, {"type": "Feature", "properties": {"norad_id": 67089, "name": "STARLINK-35763", "group": "last-30-days", "lat": -20.107639742677158, "lon": 41.92089939116416, "alt_km": 332.94824571214303, "timestamp": "2025-12-25T07:00:32.767400+00:00", "meta": {"OBJECT_NAME": "STARLINK-35763", "OBJECT_ID": "2025-298Q", "EPOCH": "2025-12-24T22:00:03.000096", "MEAN_MOTION": 15.81912365, "ECCENTRICITY": 0.00037434, "INCLINATION": 69.9971, "RA_OF_ASC_NODE": 215.3292, "ARG_OF_PERICENTER": 272.0344, "MEAN_ANOMALY": 313.423, "EPHEMERIS_TYPE": 0, "CLASSIFICATION_TYPE": "U", "NORAD_CAT_ID": 67089, "ELEMENT_SET_NO": 999, "REV_AT_EPOCH": 293, "BSTAR": -0.0095439426, "MEAN_MOTION_DOT": -0.01686097, "MEAN_MOTION_DDOT": 0}, "tle": {"line1": "1 67089U 25298Q   25358.91670139 -.01686097  00000+0 -95439-2 0  9995", "line2": "2 67089  69.9971 215.3292 0003743 272.0344 313.4230 15.81912365  2937"}}, "geometry": {"type": "Point", "coordinates": [41.92089939116416, -20.107639742677158]}}, {"type": "Feature", "properties": {"norad_id": 67090, "name": "STARLINK-36060", "group": "last-30-days", "lat": -21.839377305756873, "lon": 42.649519457739295, "alt_km": 332.96367886349617, "timestamp": "2025-12-25T07:00:32.767411+00:00", "meta": {"OBJECT_NAME": "STARLINK-36060", "OBJECT_ID": "2025-298R", "EPOCH": "2025-12-24T22:00:03.000096", "MEAN_MOTION": 15.81908547, "ECCENTRICITY": 0.00037287, "INCLINATION": 69.9966, "RA_OF_ASC_NODE": 215.3268, "ARG_OF_PERICENTER": 270.6625, "MEAN_ANOMALY": 316.658, "EPHEMERIS_TYPE": 0, "CLASSIFICATION_TYPE": "U", "NORAD_CAT_ID": 67090, "ELEMENT_SET_NO": 999, "REV_AT_EPOCH": 287, "BSTAR": -0.0095093368, "MEAN_MOTION_DOT": -0.01680527, "MEAN_MOTION_DDOT": 0}, "tle": {"line1": "1 67090U 25298R   25358.91670139 -.01680527  00000+0 -95093-2 0  9995", "line2": "2 67090  69.9966 215.3268 0003728 270.6625 316.6580 15.81908547  2878"}}, "geometry": {"type": "Point", "coordinates": [42.649519457739295, -21.839377305756873]}}]}